{"fetched_at":"2026-03-30T06:02:59Z","count":15439,"tles":[{"name":"STARLINK-6305","line1":"1 56394U 23061W   26087.91999828  .00001182  00000+0  53717-4 0  9995","line2":"2 56394  43.0012  77.7528 0000926 268.0116  92.0630 15.26755268159828","category":"Starlink"}]}